STARLINK-32566          
1 61958U 24209V   24352.16867505  .00000818  00000+0  30413-4 0  9991
2 61958  53.1614  62.9270 0000847 110.7805 249.3291 15.39620920  6371
STARLINK-32499          
1 61959U 24210A   24351.91413361 -.00002858  00000+0 -42888-4 0  9990
2 61959  43.0002 195.9790 0001419 273.9040  86.1658 15.50593353  6314
STARLINK-32372          
1 61960U 24210B   24351.91379174  .00000622  00000+0  16426-4 0  9999
2 61960  43.0012 195.9757 0001591 268.8108  91.2570 15.50577119  6142
STARLINK-32452          
1 61961U 24210C   24351.84903550  .00000825  00000+0  19879-4 0  9993
2 61961  43.0009 196.3493 0001215 269.5541  90.5180 15.50580065  6337
STARLINK-32458          
1 61962U 24210D   24351.97752605  .00005244  00000+0  95226-4 0  9991
2 61962  43.0008 195.5940 0001164 276.4398  83.6330 15.50554091  6201
STARLINK-32487          
1 61963U 24210E   24351.91276258  .00000983  00000+0  22577-4 0  9995
2 61963  43.0004 195.9673 0001348 270.5984  89.4722 15.50579940  6305
STARLINK-32513          
1 61964U 24210F   24351.91242669  .00000525  00000+0  14774-4 0  9997
2 61964  43.0000 195.9645 0001402 272.2111  87.8589 15.50572407  6307
STARLINK-32514          
1 61965U 24210G   24351.97648145 -.00009805  00000+0 -16123-3 0  9994
2 61965  43.0015 195.5848 0001698 259.8755 100.1913 15.50628442  6319
STARLINK-32498          
1 61966U 24210H   24351.97614888  .00000208  00000+0  93637-5 0  9995
2 61966  43.0010 195.5819 0001537 269.7264  90.3420 15.50582644  6327
STARLINK-32518          
1 61967U 24210J   24351.91667824 -.01230885  00000+0 -10742-1 0  9999
2 61967  42.9958 190.8155 0001484 266.2146  12.5362 15.70669948  6078
STARLINK-32471          
1 61968U 24210K   24352.58334491  .00031294  00000+0  75402-3 0  9991
2 61968  42.9980 192.4407 0001609 254.1851  90.3529 15.40672115  6458
STARLINK-32450          
1 61969U 24210L   24350.94507255 -.00037905  00000+0 -65028-3 0  9990
2 61969  43.0001 201.6045 0001409 288.1490  71.9217 15.50282138  5990
STARLINK-32613          
1 61970U 24210M   24351.91070899  .00000954  00000+0  22076-4 0  9998
2 61970  42.9984 195.9522 0001435 253.8237 106.2465 15.50576026  6352
STARLINK-32610          
1 61971U 24210N   24351.91036393 -.00000596  00000+0 -43350-5 0  9993
2 61971  43.0017 195.9460 0001671 277.6249  82.4421 15.50582395  6355
STARLINK-32612          
1 61972U 24210P   24352.29650548  .00001619  00000+0  33408-4 0  9997
2 61972  42.9993 193.6825 0001295 271.4363  88.6348 15.50587147  6376
STARLINK-32601          
1 61973U 24210Q   24352.29616690  .00000277  00000+0  10547-4 0  9996
2 61973  43.0008 193.6809 0001401 276.1337  83.9363 15.50579613  6374
STARLINK-32593          
1 61974U 24210R   24351.97375167  .00001396  00000+0  29609-4 0  9994
2 61974  43.0009 195.5620 0001538 270.2366  89.8318 15.50576821  6324
STARLINK-32586          
1 61975U 24210S   24352.29550915 -.00003027  00000+0 -45837-4 0  9993
2 61975  43.0013 193.6756 0001523 268.2193  91.8492 15.50551921  6373
STARLINK-32611          
1 61976U 24210T   24351.84423295  .00000265  00000+0  10333-4 0  9996
2 61976  43.0007 196.3085 0001558 278.3327  81.7356 15.50584652  6308
STARLINK-32607          
1 61977U 24210U   24352.29479515  .00001278  00000+0  27592-4 0  9993
2 61977  43.0001 193.6684 0001436 263.3951  96.6745 15.50583767  6415
STARLINK-32606          
1 61978U 24210V   24352.29445449 -.00001733  00000+0 -23731-4 0  9992
2 61978  42.9996 193.6650 0001447 273.6318  86.4376 15.50566442  6376
STARLINK-32578          
1 61979U 24210W   24351.97203524 -.00000238  00000+0  17702-5 0  9993
2 61979  43.0014 195.5468 0001563 268.5001  91.5680 15.50583267  6367
STARLINK-32517          
1 61980U 24210X   24351.97169340  .00000786  00000+0  19218-4 0  9992
2 61980  43.0008 195.5436 0001496 265.2125  94.8565 15.50579252  6270
STARLINK-32522          
1 61981U 24210Y   24351.58485802  .00001161  00000+0  25607-4 0  9991
2 61981  42.9990 197.8001 0002212 264.4328  95.6280 15.50581362  6262
STARLINK-32560          
1 61982U 24210Z   24351.90659432  .00000205  00000+0  93218-5 0  9992
2 61982  42.9997 195.9129 0001432 269.9954  90.0742 15.50575131  6313
STARLINK-11433 [DTC]    
1 62008U 24213A   24352.00242270  .00009400  00000+0  61341-4 0  9992
2 62008  53.1583  90.9412 0000167 131.5911 228.5124 15.76735221  5764
STARLINK-11262 [DTC]    
1 62009U 24213B   24352.43687296  .00001920  00000+0  15731-4 0  9992
2 62009  53.1565  89.4043 0001272 106.0191 254.0970 15.76724846  5723
STARLINK-11326 [DTC]    
1 62010U 24213C   24352.45100401  .00005057  00000+0  34863-4 0  9996
2 62010  53.1556  88.7619 0001211  84.7922 275.3237 15.76736282  5632
STARLINK-11330 [DTC]    
1 62011U 24213D   24351.71968322  .00005312  00000+0  36436-4 0  9991
2 62011  53.1558  92.7441 0001855 108.3558 251.7665 15.76730446  4510
STARLINK-11363 [DTC]    
1 62012U 24213E   24352.47053969  .00008743  00000+0  57332-4 0  9997
2 62012  53.1566  88.8946 0001509  90.0163 270.1031 15.76742168  5642
STARLINK-11377 [DTC]    
1 62013U 24213F   24352.50002315 -.00928643  00000+0 -50628-2 0  9992
2 62013  53.1625  88.4044 0001249  66.7310 273.3678 15.81577112  5855
STARLINK-11385 [DTC]    
1 62014U 24213G   24351.02773646 -.00000775  00000+0 -74367-6 0  9998
2 62014  53.1546  96.2516 0000638 107.1869 252.9221 15.76716314  5400
STARLINK-11396 [DTC]    
1 62015U 24213H   24352.44124416  .00000023  00000+0  41415-5 0  9992
2 62015  53.1574  88.6960 0001372  50.0339 310.0802 15.76720020  5471
STARLINK-11393 [DTC]    
1 62016U 24213J   24352.46077074  .00004147  00000+0  29320-4 0  9993
2 62016  53.1545  88.8250 0001025 105.4864 254.6270 15.76729130  5571
STARLINK-11343 [DTC]    
1 62017U 24213K   24351.98339522  .00018932  00000+0  11931-3 0  9994
2 62017  53.1555  91.5494 0001177 106.7583 253.3567 15.76747667  5754
STARLINK-11411 [DTC]    
1 62018U 24213L   24352.43198736 -.00001963  00000+0 -80076-5 0  9992
2 62018  53.1570  89.3679 0000808 106.9130 253.1979 15.76714538  5826
STARLINK-11404 [DTC]    
1 62019U 24213M   24352.46565452 -.00004060  00000+0 -20821-4 0  9991
2 62019  53.1554  88.8569 0001197  75.5492 284.5662 15.76725261  5636
STARLINK-11378 [DTC]    
1 62020U 24213N   24352.45588819  .00004227  00000+0  29806-4 0  9999
2 62020  53.1551  88.7932 0001304  91.4163 268.7007 15.76732770  5573
STARLINK-32520          
1 62021U 24213P   24351.62469727  .00000546  00000+0  17871-4 0  9993
2 62021  53.1608  95.7698 0001218  91.4012 268.7136 15.49313739  4461
STARLINK-32539          
1 62022U 24213Q   24351.91667824 -.00388253  00000+0 -18149-2 0  9997
2 62022  53.1561  90.5661 0000566  28.8175 233.1168 15.83502200  5409
STARLINK-32334          
1 62023U 24213R   24352.01037165  .00001006  00000+0  26138-4 0  9994
2 62023  53.1614  93.9088 0001270  88.2633 271.8521 15.49315266  5713
STARLINK-32504          
1 62024U 24213S   24352.16667824 -.00024255  00000+0 -59850-3 0  9991
2 62024  53.1599  93.4677 0001201  96.0459 263.3519 15.39610360  5751
STARLINK-32493          
1 62025U 24213T   24351.88220620 -.00100103  00000+0 -18382-2 0  9990
2 62025  53.1607  94.5322 0000490 161.2812 198.8215 15.48948472  5728
STARLINK-32561          
1 62026U 24213U   24352.46251031 -.00035288  00000+0 -63534-3 0  9997
2 62026  53.1609  91.7548 0001426   7.1304 352.9725 15.49036974  5819
STARLINK-32512          
1 62027U 24213V   24352.01002723 -.00000152  00000+0  53238-5 0  9994
2 62027  53.1631  93.9076 0001313  79.5653 280.5504 15.49316804  5207
STARLINK-32637          
1 62032U 24216A   24352.58334491 -.00262760  00000+0 -64668-2 0  9997
2 62032  42.9996 283.6674 0002034 269.8009 271.7023 15.40859273  5150
STARLINK-32582          
1 62033U 24216B   24351.96195574  .00004118  00000+0  75973-4 0  9998
2 62033  42.9988 287.1755 0001087 268.5869  91.4867 15.50577266  5050
STARLINK-32615          
1 62034U 24216C   24351.96161140  .00002779  00000+0  53161-4 0  9997
2 62034  42.9991 287.1719 0000814 259.4952 100.5816 15.50580752  5065
STARLINK-32592          
1 62035U 24216D   24352.21892537  .00000919  00000+0  21466-4 0  9995
2 62035  42.9984 285.6645 0000745 235.7357 124.3432 15.50587058  5152
STARLINK-32225          
1 62036U 24216E   24352.16667824 -.01499904  00000+0 -32811-1 0  9991
2 62036  42.9995 285.9915 0001284 280.5405 139.4097 15.46323037  5243
STARLINK-32595          
1 62037U 24216F   24351.91667824 -.00051989  00000+0 -88530-3 0  9991
2 62037  42.9995 287.4233 0001380 280.5127 194.1763 15.50609260  5206
STARLINK-32477          
1 62038U 24216G   24352.58334491 -.00127065  00000+0 -30774-2 0  9992
2 62038  42.9994 283.7563 0001946 269.6637 234.5423 15.40776228  5168
STARLINK-32480          
1 62039U 24216H   24352.21755354  .00001101  00000+0  24573-4 0  9990
2 62039  42.9993 285.6522 0000764 236.5946 123.4841 15.50584374  4997
STARLINK-32510          
1 62040U 24216J   24352.21722283  .00009817  00000+0  17302-3 0  9990
2 62040  42.9992 285.6481 0000801 234.2965 125.7820 15.50565396  5109
STARLINK-32456          
1 62041U 24216K   24352.58334491 -.01536904  00000+0 -33628-1 0  9993
2 62041  42.9997 283.5267 0001410 253.9889 344.3766 15.46389091  5057
STARLINK-32509          
1 62042U 24216L   24352.16667824 -.01497045  00000+0 -36697-1 0  9998
2 62042  42.9995 286.0156 0001585 277.7638 131.9327 15.43005419  5150
STARLINK-32491          
1 62043U 24216M   24351.95852476  .00001673  00000+0  34337-4 0  9991
2 62043  42.9996 287.1455 0001161 240.9129 119.1614 15.50577927  4953
STARLINK-32577          
1 62044U 24216N   24352.21584002  .00001976  00000+0  39476-4 0  9994
2 62044  42.9994 285.6372 0000948 257.6057 102.4697 15.50583346  5207
STARLINK-32618          
1 62045U 24216P   24351.91667824 -.00051650  00000+0 -87952-3 0  9992
2 62045  42.9995 287.3838 0001386 278.5096 211.5171 15.50606694  4993
